start=new Date('2022-01-25T00:00:00.000Z').valueOf();
sats=[{"OBJECT_NAME":"STARLINK-3119","DECAY_DATE":null,"ARG_OF_PERICENTER":"292.1802","PERIOD":"91.747","OBJECT_ID":"2021-082R","PERIAPSIS":"357.746","RCS_SIZE":"LARGE","GP_ID":"194572691","BSTAR":"0.00111840000000","CENTER_NAME":"EARTH","REF_FRAME":"TEME","REV_AT_EPOCH":"368","TIME_SYSTEM":"UTC","FILE":"3282614","TLE_LINE2":"2 49145  70.0002 113.5983 0003691 292.1802  36.3723 15.69533854  3687","ELEMENT_SET_NO":"999","EPHEMERIS_TYPE":"0","CLASSIFICATION_TYPE":"U","EPOCH":"2022-01-24T22:00:00.999936","MEAN_MOTION":"15.69533854","ECCENTRICITY":"0.00036910","INCLINATION":"70.0002","MEAN_ANOMALY":"36.3723","APOAPSIS":"362.720","RA_OF_ASC_NODE":"113.5983","COUNTRY_CODE":"US","MEAN_MOTION_DDOT":"0.0000000000000","MEAN_ELEMENT_THEORY":"SGP4","NORAD_CAT_ID":"49145","TLE_LINE1":"1 49145U 21082R   22024.91667824  .00134263  00000-0  11184-2 0  9995","SITE":"AFWTR","OBJECT_TYPE":"PAYLOAD","SEMIMAJOR_AXIS":"6738.368","LAUNCH_DATE":"2021-09-14","MEAN_MOTION_DOT":"0.00134263"},{"PERIOD":"92.113","ARG_OF_PERICENTER":"273.9684","PERIAPSIS":"375.822","OBJECT_ID":"2021-082S","DECAY_DATE":null,"OBJECT_NAME":"STARLINK-3116","TIME_SYSTEM":"UTC","FILE":"3282614","CENTER_NAME":"EARTH","BSTAR":"-0.00779770000000","REF_FRAME":"TEME","REV_AT_EPOCH":"368","ELEMENT_SET_NO":"999","EPHEMERIS_TYPE":"0","CLASSIFICATION_TYPE":"U","TLE_LINE2":"2 49146  69.9998 113.6543 0003402 273.9684 358.8979 15.63304764  3682","GP_ID":"194573434","RCS_SIZE":"LARGE","COUNTRY_CODE":"US","RA_OF_ASC_NODE":"113.6543","APOAPSIS":"380.419","MEAN_MOTION_DDOT":"0.0000000000000","MEAN_MOTION":"15.63304764","EPOCH":"2022-01-24T22:00:00.999936","MEAN_ANOMALY":"358.8979","INCLINATION":"69.9998","ECCENTRICITY":"0.00034020","TLE_LINE1":"1 49146U 21082S   22024.91667824 -.00663468  00000-0 -77977-2 0  9994","OBJECT_TYPE":"PAYLOAD","SITE":"AFWTR","MEAN_MOTION_DOT":"-0.00663468","LAUNCH_DATE":"2021-09-14","SEMIMAJOR_AXIS":"6756.256","MEAN_ELEMENT_THEORY":"SGP4","NORAD_CAT_ID":"49146"},{"TLE_LINE2":"2 49147  69.9998 113.6013 0004162 293.6716  28.4766 15.69730137  3681","EPHEMERIS_TYPE":"0","ELEMENT_SET_NO":"999","CLASSIFICATION_TYPE":"U","REF_FRAME":"TEME","REV_AT_EPOCH":"368","CENTER_NAME":"EARTH","BSTAR":"-0.00020437000000","FILE":"3282614","TIME_SYSTEM":"UTC","RCS_SIZE":"LARGE","GP_ID":"194571690","OBJECT_ID":"2021-082T","PERIAPSIS":"356.867","ARG_OF_PERICENTER":"293.6716","PERIOD":"91.736","OBJECT_NAME":"STARLINK-3071","DECAY_DATE":null,"LAUNCH_DATE":"2021-09-14","SEMIMAJOR_AXIS":"6737.806","MEAN_MOTION_DOT":"-0.00024523","SITE":"AFWTR","TLE_LINE1":"1 49147U 21082T   22024.91667824 -.00024523  00000-0 -20437-3 0  9998","OBJECT_TYPE":"PAYLOAD","NORAD_CAT_ID":"49147","MEAN_ELEMENT_THEORY":"SGP4","MEAN_MOTION_DDOT":"0.0000000000000","APOAPSIS":"362.475","COUNTRY_CODE":"US","RA_OF_ASC_NODE":"113.6013","ECCENTRICITY":"0.00041620","MEAN_ANOMALY":"28.4766","INCLINATION":"69.9998","EPOCH":"2022-01-24T22:00:00.999936","MEAN_MOTION":"15.69730137"},{"CENTER_NAME":"EARTH","BSTAR":"-0.00777150000000","REV_AT_EPOCH":"368","REF_FRAME":"TEME","TIME_SYSTEM":"UTC","FILE":"3282614","TLE_LINE2":"2 49148  69.9998 113.6480 0003394 268.7413  11.9002 15.63389725  3680","ELEMENT_SET_NO":"999","EPHEMERIS_TYPE":"0","CLASSIFICATION_TYPE":"U","RCS_SIZE":"LARGE","GP_ID":"194571940","ARG_OF_PERICENTER":"268.7413","PERIOD":"92.108","OBJECT_ID":"2021-082U","PERIAPSIS":"375.583","OBJECT_NAME":"STARLINK-3048","DECAY_DATE":null,"OBJECT_TYPE":"PAYLOAD","TLE_LINE1":"1 49148U 21082U   22024.91667824 -.00663453  00000-0 -77715-2 0  9990","SITE":"AFWTR","LAUNCH_DATE":"2021-09-14","SEMIMAJOR_AXIS":"6756.011","MEAN_MOTION_DOT":"-0.00663453","MEAN_ELEMENT_THEORY":"SGP4","NORAD_CAT_ID":"49148","APOAPSIS":"380.169","RA_OF_ASC_NODE":"113.6480","COUNTRY_CODE":"US","MEAN_MOTION_DDOT":"0.0000000000000","EPOCH":"2022-01-24T22:00:00.999936","MEAN_MOTION":"15.63389725","ECCENTRICITY":"0.00033940","MEAN_ANOMALY":"11.9002","INCLINATION":"69.9998"},{"MEAN_ELEMENT_THEORY":"SGP4","NORAD_CAT_ID":"49149","OBJECT_TYPE":"PAYLOAD","TLE_LINE1":"1 49149U 21082V   22024.91667824 -.00051459  00000-0 -43321-2 0  9994","SITE":"AFWTR","MEAN_MOTION_DOT":"-0.00051459","LAUNCH_DATE":"2021-09-14","SEMIMAJOR_AXIS":"6950.076","MEAN_MOTION":"14.98367834","EPOCH":"2022-01-24T22:00:00.999936","INCLINATION":"69.9972","MEAN_ANOMALY":"14.0956","ECCENTRICITY":"0.00037400","RA_OF_ASC_NODE":"128.5271","COUNTRY_CODE":"US","APOAPSIS":"574.540","MEAN_MOTION_DDOT":"0.0000000000000","GP_ID":"194573191","RCS_SIZE":"LARGE","FILE":"3282614","TIME_SYSTEM":"UTC","BSTAR":"-0.00433210000000","CENTER_NAME":"EARTH","REF_FRAME":"TEME","REV_AT_EPOCH":"356","ELEMENT_SET_NO":"999","EPHEMERIS_TYPE":"0","CLASSIFICATION_TYPE":"U","TLE_LINE2":"2 49149  69.9972 128.5271 0003740 284.2278  14.0956 14.98367834  3566","DECAY_DATE":null,"OBJECT_NAME":"STARLINK-3053","PERIOD":"96.105","ARG_OF_PERICENTER":"284.2278","PERIAPSIS":"569.342","OBJECT_ID":"2021-082V"},{"GP_ID":"194572935","RCS_SIZE":"LARGE","EPHEMERIS_TYPE":"0","ELEMENT_SET_NO":"999","CLASSIFICATION_TYPE":"U","TLE_LINE2":"2 49150  69.9964 128.5256 0003698 285.3808  38.7108 14.98368311  3568","FILE":"3282614","TIME_SYSTEM":"UTC","REF_FRAME":"TEME","REV_AT_EPOCH":"356","CENTER_NAME":"EARTH","BSTAR":"-0.00439360000000","DECAY_DATE":null,"OBJECT_NAME":"STARLINK-3104","PERIAPSIS":"569.369","OBJECT_ID":"2021-082W","PERIOD":"96.105","ARG_OF_PERICENTER":"285.3808","NORAD_CAT_ID":"49150","MEAN_ELEMENT_THEORY":"SGP4","MEAN_MOTION_DOT":"-0.00052183","LAUNCH_DATE":"2021-09-14","SEMIMAJOR_AXIS":"6950.074","TLE_LINE1":"1 49150U 21082W   22024.91667824 -.00052183  00000-0 -43936-2 0  9993","OBJECT_TYPE":"PAYLOAD","SITE":"AFWTR","INCLINATION":"69.9964","MEAN_ANOMALY":"38.7108","ECCENTRICITY":"0.00036980","MEAN_MOTION":"14.98368311","EPOCH":"2022-01-24T22:00:00.999936","MEAN_MOTION_DDOT":"0.0000000000000","RA_OF_ASC_NODE":"128.5256","COUNTRY_CODE":"US","APOAPSIS":"574.510"},{"NORAD_CAT_ID":"49151","MEAN_ELEMENT_THEORY":"SGP4","LAUNCH_DATE":"2021-09-14","SEMIMAJOR_AXIS":"6737.614","MEAN_MOTION_DOT":"-0.00107537","TLE_LINE1":"1 49151U 21082X   22024.91667824 -.00107537  00000-0 -90861-3 0  9998","OBJECT_TYPE":"PAYLOAD","SITE":"AFWTR","ECCENTRICITY":"0.00041590","INCLINATION":"69.9982","MEAN_ANOMALY":"40.7140","EPOCH":"2022-01-24T22:00:00.999936","MEAN_MOTION":"15.69797401","MEAN_MOTION_DDOT":"0.0000000000000","APOAPSIS":"362.281","RA_OF_ASC_NODE":"113.5804","COUNTRY_CODE":"US","RCS_SIZE":"LARGE","GP_ID":"194572190","TLE_LINE2":"2 49151  69.9982 113.5804 0004159 294.1533  40.7140 15.69797401  3685","ELEMENT_SET_NO":"999","CLASSIFICATION_TYPE":"U","EPHEMERIS_TYPE":"0","BSTAR":"-0.00090861000000","CENTER_NAME":"EARTH","REF_FRAME":"TEME","REV_AT_EPOCH":"368","TIME_SYSTEM":"UTC","FILE":"3282614","OBJECT_NAME":"STARLINK-3102","DECAY_DATE":null,"OBJECT_ID":"2021-082X","PERIAPSIS":"356.676","ARG_OF_PERICENTER":"294.1533","PERIOD":"91.732"},{"TLE_LINE1":"1 49152U 21082Y   22024.91667824 -.00021441  00000-0 -17837-3 0  9990","SITE":"AFWTR","OBJECT_TYPE":"PAYLOAD","SEMIMAJOR_AXIS":"6737.793","LAUNCH_DATE":"2021-09-14","MEAN_MOTION_DOT":"-0.00021441","MEAN_ELEMENT_THEORY":"SGP4","NORAD_CAT_ID":"49152","APOAPSIS":"362.248","COUNTRY_CODE":"US","RA_OF_ASC_NODE":"113.5780","MEAN_MOTION_DDOT":"0.0000000000000","EPOCH":"2022-01-24T22:00:00.999936","MEAN_MOTION":"15.69734840","ECCENTRICITY":"0.00038450","MEAN_ANOMALY":"47.6211","INCLINATION":"69.9990","BSTAR":"-0.00017837000000","CENTER_NAME":"EARTH","REV_AT_EPOCH":"368","REF_FRAME":"TEME","TIME_SYSTEM":"UTC","FILE":"3282614","TLE_LINE2":"2 49152  69.9990 113.5780 0003845 295.7895  47.6211 15.69734840  3680","ELEMENT_SET_NO":"999","EPHEMERIS_TYPE":"0","CLASSIFICATION_TYPE":"U","RCS_SIZE":"LARGE","GP_ID":"194572440","ARG_OF_PERICENTER":"295.7895","PERIOD":"91.735","OBJECT_ID":"2021-082Y","PERIAPSIS":"357.067","OBJECT_NAME":"STARLINK-3081","DECAY_DATE":null},{"LAUNCH_DATE":"2021-09-14","SEMIMAJOR_AXIS":"6737.626","MEAN_MOTION_DOT":"-0.00088414","SITE":"AFWTR","TLE_LINE1":"1 49153U 21082Z   22024.91667824 -.00088414  00000-0 -74519-3 0  9994","OBJECT_TYPE":"PAYLOAD","NORAD_CAT_ID":"49153","MEAN_ELEMENT_THEORY":"SGP4","MEAN_MOTION_DDOT":"0.0000000000000","APOAPSIS":"362.184","COUNTRY_CODE":"US","RA_OF_ASC_NODE":"113.5798","ECCENTRICITY":"0.00039970","INCLINATION":"69.9970","MEAN_ANOMALY":"47.2359","EPOCH":"2022-01-24T22:00:00.999936","MEAN_MOTION":"15.69792971","TLE_LINE2":"2 49153  69.9970 113.5798 0003997 291.8633  47.2359 15.69792971  3681","ELEMENT_SET_NO":"999","CLASSIFICATION_TYPE":"U","EPHEMERIS_TYPE":"0","REV_AT_EPOCH":"368","REF_FRAME":"TEME","BSTAR":"-0.00074519000000","CENTER_NAME":"EARTH","TIME_SYSTEM":"UTC","FILE":"3282614","RCS_SIZE":"LARGE","GP_ID":"194572692","OBJECT_ID":"2021-082Z","PERIAPSIS":"356.798","ARG_OF_PERICENTER":"291.8633","PERIOD":"91.732","OBJECT_NAME":"STARLINK-3072","DECAY_DATE":null},{"ELEMENT_SET_NO":"999","CLASSIFICATION_TYPE":"U","EPHEMERIS_TYPE":"0","TLE_LINE2":"2 49154  69.9998 113.6349 0003442 275.4432  18.6752 15.63433694  3682","TIME_SYSTEM":"UTC","FILE":"3282614","BSTAR":"-0.00775410000000","CENTER_NAME":"EARTH","REV_AT_EPOCH":"368","REF_FRAME":"TEME","GP_ID":"194573435","RCS_SIZE":"LARGE","PERIAPSIS":"375.424","OBJECT_ID":"2021-082AA","PERIOD":"92.105","ARG_OF_PERICENTER":"275.4432","DECAY_DATE":null,"OBJECT_NAME":"STARLINK-3068","MEAN_MOTION_DOT":"-0.00663152","LAUNCH_DATE":"2021-09-14","SEMIMAJOR_AXIS":"6755.884","SITE":"AFWTR","TLE_LINE1":"1 49154U 21082AA  22024.91667824 -.00663152  00000-0 -77541-2 0  9990","OBJECT_TYPE":"PAYLOAD","NORAD_CAT_ID":"49154","MEAN_ELEMENT_THEORY":"SGP4","MEAN_MOTION_DDOT":"0.0000000000000","COUNTRY_CODE":"US","RA_OF_ASC_NODE":"113.6349","APOAPSIS":"380.075","INCLINATION":"69.9998","MEAN_ANOMALY":"18.6752","ECCENTRICITY":"0.00034420","MEAN_MOTION":"15.63433694","EPOCH":"2022-01-24T22:00:00.999936"}];
